{
  "norad_id": 59886,
  "name": "STARLINK-31975",
  "history": [
    {
      "epoch": "2026-04-16T18:59:20.268384Z",
      "apogee_km": 484.13168656925063,
      "perigee_km": 481.8167476445997,
      "latitude_deg": 1.9950533653969807e-05,
      "longitude_deg": 140.4847220507993,
      "height_km": 482.9652362108927,
      "semi_major_axis_km": 6861.111217106925,
      "eccentricity": 0.0001687,
      "inclination_deg": 43.0034,
      "raan_deg": 270.253,
      "arg_perigee_deg": 259.3574,
      "mean_anomaly_deg": 100.7088,
      "mean_motion_rev_day": 15.27605007
    },
    {
      "epoch": "2026-04-17T16:57:33.897312Z",
      "apogee_km": 484.03534285538717,
      "perigee_km": 482.1893923255311,
      "latitude_deg": 4.675646147420117e-05,
      "longitude_deg": 164.85777022737514,
      "height_km": 482.984660006692,
      "semi_major_axis_km": 6861.249367590459,
      "eccentricity": 0.00013452,
      "inclination_deg": 43.0022,
      "raan_deg": 265.0851,
      "arg_perigee_deg": 264.0664,
      "mean_anomaly_deg": 96.0035,
      "mean_motion_rev_day": 15.2755887
    },
    {
      "epoch": "2026-04-18T19:38:13.889184Z",
      "apogee_km": 483.74402253605604,
      "perigee_km": 482.5762297651863,
      "latitude_deg": -1.9705719040748934e-05,
      "longitude_deg": 117.31734957809284,
      "height_km": 483.1832518133069,
      "semi_major_axis_km": 6861.297126150621,
      "eccentricity": 8.51e-05,
      "inclination_deg": 43.0025,
      "raan_deg": 258.807,
      "arg_perigee_deg": 245.0047,
      "mean_anomaly_deg": 115.0716,
      "mean_motion_rev_day": 15.27542921
    },
    {
      "epoch": "2026-04-19T17:36:23.965344Z",
      "apogee_km": 483.81198741971184,
      "perigee_km": 482.2641063291376,
      "latitude_deg": -9.617548438861865e-06,
      "longitude_deg": 141.7025215196313,
      "height_km": 483.0608651334539,
      "semi_major_axis_km": 6861.175046874425,
      "eccentricity": 0.0001128,
      "inclination_deg": 43.0027,
      "raan_deg": 253.6364,
      "arg_perigee_deg": 251.4566,
      "mean_anomaly_deg": 108.6163,
      "mean_motion_rev_day": 15.2758369
    },
    {
      "epoch": "2026-04-20T10:52:08.002560Z",
      "apogee_km": 483.85446160679385,
      "perigee_km": 482.27432692569437,
      "latitude_deg": -4.125118178678716e-05,
      "longitude_deg": -122.00153664963518,
      "height_km": 483.0926745401066,
      "semi_major_axis_km": 6861.201394266243,
      "eccentricity": 0.00011515,
      "inclination_deg": 43.0026,
      "raan_deg": 249.5748,
      "arg_perigee_deg": 251.432,
      "mean_anomaly_deg": 108.6406,
      "mean_motion_rev_day": 15.27574891
    },
    {
      "epoch": "2026-04-21T19:49:23.426976Z",
      "apogee_km": 483.9370933848613,
      "perigee_km": 482.09281573947464,
      "latitude_deg": -4.709062354421338e-06,
      "longitude_deg": 94.5756461682566,
      "height_km": 482.85787964671647,
      "semi_major_axis_km": 6861.151954562168,
      "eccentricity": 0.0001344,
      "inclination_deg": 43.0047,
      "raan_deg": 241.8196,
      "arg_perigee_deg": 265.9107,
      "mean_anomaly_deg": 94.1591,
      "mean_motion_rev_day": 15.27591402
    },
    {
      "epoch": "2026-04-22T14:39:18.091584Z",
      "apogee_km": 484.07654259044557,
      "perigee_km": 482.0867891773396,
      "latitude_deg": 1.9445232433015635e-06,
      "longitude_deg": 166.89488547277423,
      "height_km": 483.11107782476256,
      "semi_major_axis_km": 6861.218665883892,
      "eccentricity": 0.000145,
      "inclination_deg": 43.0034,
      "raan_deg": 237.39,
      "arg_perigee_deg": 255.3056,
      "mean_anomaly_deg": 104.7635,
      "mean_motion_rev_day": 15.27569123
    },
    {
      "epoch": "2026-04-23T14:11:38.882400Z",
      "apogee_km": 484.20205357897885,
      "perigee_km": 482.07752783350406,
      "latitude_deg": 2.080883544734457e-05,
      "longitude_deg": 167.30195835399752,
      "height_km": 483.5282321588478,
      "semi_major_axis_km": 6861.276790706241,
      "eccentricity": 0.00015482,
      "inclination_deg": 43.0028,
      "raan_deg": 231.8504,
      "arg_perigee_deg": 234.846,
      "mean_anomaly_deg": 125.2247,
      "mean_motion_rev_day": 15.27549712
    },
    {
      "epoch": "2026-04-24T15:18:08.691840Z",
      "apogee_km": 484.09979691579065,
      "perigee_km": 482.0181100635018,
      "latitude_deg": 3.8089584746177823e-05,
      "longitude_deg": 143.7373090444462,
      "height_km": 483.45823256925365,
      "semi_major_axis_km": 6861.195953489646,
      "eccentricity": 0.0001517,
      "inclination_deg": 43.0031,
      "raan_deg": 225.9411,
      "arg_perigee_deg": 233.2695,
      "mean_anomaly_deg": 126.8018,
      "mean_motion_rev_day": 15.27576708
    },
    {
      "epoch": "2026-04-25T14:50:28.508928Z",
      "apogee_km": 483.92648374454166,
      "perigee_km": 482.0794648634592,
      "latitude_deg": -3.870257908112005e-06,
      "longitude_deg": 144.1503870092816,
      "height_km": 483.10044058172485,
      "semi_major_axis_km": 6861.139974304,
      "eccentricity": 0.0001346,
      "inclination_deg": 43.0022,
      "raan_deg": 220.4035,
      "arg_perigee_deg": 249.6813,
      "mean_anomaly_deg": 110.3894,
      "mean_motion_rev_day": 15.27595403
    },
    {
      "epoch": "2026-04-26T15:56:59.824320Z",
      "apogee_km": 483.95468689803056,
      "perigee_km": 482.19766742762204,
      "latitude_deg": 2.9218996459596586e-05,
      "longitude_deg": 120.58036422664657,
      "height_km": 483.24697496018723,
      "semi_major_axis_km": 6861.213177162826,
      "eccentricity": 0.00012804,
      "inclination_deg": 43.0019,
      "raan_deg": 214.4951,
      "arg_perigee_deg": 243.3418,
      "mean_anomaly_deg": 116.7303,
      "mean_motion_rev_day": 15.27570956
    },
    {
      "epoch": "2026-04-26T23:47:46.750848Z",
      "apogee_km": 483.67683239710004,
      "perigee_km": 482.4479915824131,
      "latitude_deg": -1.596495134255195e-05,
      "longitude_deg": 0.7165501220494125,
      "height_km": 483.0126273091869,
      "semi_major_axis_km": 6861.199411989756,
      "eccentricity": 8.955e-05,
      "inclination_deg": 43.0019,
      "raan_deg": 212.6491,
      "arg_perigee_deg": 253.5693,
      "mean_anomaly_deg": 106.506,
      "mean_motion_rev_day": 15.27575553
    },
    {
      "epoch": "2026-04-28T05:36:45.021888Z",
      "apogee_km": 483.10242092862154,
      "perigee_km": 482.97754750750846,
      "latitude_deg": 3.134653461142235e-05,
      "longitude_deg": -94.76620169693294,
      "height_km": 482.83184033962726,
      "semi_major_axis_km": 6861.176984218065,
      "eccentricity": 9.1e-06,
      "inclination_deg": 43.0006,
      "raan_deg": 205.6336,
      "arg_perigee_deg": 254.868,
      "mean_anomaly_deg": 105.2162,
      "mean_motion_rev_day": 15.27583043
    },
    {
      "epoch": "2026-04-29T16:08:11.020992Z",
      "apogee_km": 484.9471740979943,
      "perigee_km": 481.12412869663603,
      "latitude_deg": -3.4971714786073586e-05,
      "longitude_deg": 97.83355297550114,
      "height_km": 483.35329898443507,
      "semi_major_axis_km": 6861.172651397315,
      "eccentricity": 0.0002786,
      "inclination_deg": 43.0058,
      "raan_deg": 197.5096,
      "arg_perigee_deg": 253.6085,
      "mean_anomaly_deg": 106.446,
      "mean_motion_rev_day": 15.2758449
    }
  ]
}